ONEWEB-0660             
1 55820U 23029AA  26153.81651281  .00000030  00000+0  46243-4 0  9990
2 55820  87.8961 292.5615 0001657  89.4634 270.6686 13.14502633157516
ONEWEB-0661             
1 55821U 23029AB  26154.46034609  .00000218  00000+0  55433-3 0  9990
2 55821  87.8943 292.4801 0001540  87.3980 272.7326 13.14501994157585
ONEWEB-0662             
1 55822U 23029AC  26153.81016591 -.00000093  00000+0 -28501-3 0  9998
2 55822  87.8940 292.6168 0001643  89.9631 270.1687 13.14501936157540
ONEWEB-0663             
1 55823U 23029AD  26154.29987957  .00000062  00000+0  12134-3 0  9994
2 55823  87.9195 277.2688 0001477  96.5868 263.5434 13.20868072159318
ONEWEB-0664             
1 55824U 23029AE  26154.32743588  .00000095  00000+0  20142-3 0  9993
2 55824  87.9177 277.2455 0002051  89.2634 270.8734 13.20771371159319
ONEWEB-0665             
1 55825U 23029AF  26154.45717800  .00000184  00000+0  46255-3 0  9998
2 55825  87.8945 292.4623 0001601  91.6396 268.4917 13.14502093157602
ONEWEB-0666             
1 55826U 23029AG  26154.32070587  .00000023  00000+0  24622-4 0  9996
2 55826  87.9183 277.2362 0002458 117.9769 242.1614 13.20769624159322
ONEWEB-0667             
1 55827U 23029AH  26154.31567023  .00000020  00000+0  18235-4 0  9992
2 55827  87.9191 277.1949 0001822  99.1302 261.0038 13.20771493159316
ONEWEB-0669             
1 55828U 23029AJ  26154.31061303  .00000047  00000+0  84649-4 0  9994
2 55828  87.9195 277.2059 0002383  94.2481 265.8925 13.20770840159313
ONEWEB-0670             
1 55829U 23029AK  26154.43497632  .00001317  00000+0  35180-2 0  9991
2 55829  87.8988 292.4816 0002187  96.4969 263.6410 13.14492551157620
ONEWEB-0671             
1 55830U 23029AL  26154.49227832  .00000236  00000+0  55641-3 0  9996
2 55830  87.9144 307.7055 0001664  95.0299 265.1023 13.19727806157099
ONEWEB-0672             
1 55831U 23029AM  26154.30555884  .00000100  00000+0  21407-3 0  9991
2 55831  87.9202 277.1999 0002149 108.0971 252.0397 13.20770462159317
ONEWEB-0673             
1 55832U 23029AN  26154.46939782  .00000062  00000+0  12336-3 0  9990
2 55832  87.9168 307.7007 0001772  90.3964 269.7372 13.19725766157091
ONEWEB-0674             
1 55833U 23029AP  26154.32714138 -.00000025  00000+0 -10310-3 0  9993
2 55833  87.8946 292.4804 0001826  91.2773 268.8566 13.14503282157590
ONEWEB-0675             
1 55834U 23029AQ  26154.48439611 -.00000003  00000+0 -38806-4 0  9998
2 55834  87.9157 307.7084 0001930 105.8365 254.2980 13.19727388157118
ONEWEB-0720             
1 55835U 23029AR  26154.47649202  .00000006  00000+0 -16971-4 0  9998
2 55835  87.9162 307.7110 0001553 107.6174 252.5128 13.19726764157037
